[{"firstLetter":"B","latitude":39.929986,"longitude":116.395645,"name":"北京","pinyin":"beijing"},{"firstLetter":"S","latitude":31.249162,"longitude":121.487899,"name":"上海","pinyin":"shanghai"},{"firstLetter":"T","latitude":39.14393,"longitude":117.210813,"name":"天津","pinyin":"tianjin"},{"firstLetter":"Z","latitude":29.544606,"longitude":106.530635,"name":"重庆","pinyin":"zhongqing"},{"firstLetter":"X","latitude":22.293586,"longitude":114.186124,"name":"香港","pinyin":"xianggang"},{"firstLetter":"A","latitude":22.204118,"longitude":113.557519,"name":"澳门","pinyin":"aomen"},{"firstLetter":"T","latitude":23.80406,"longitude":120.961454,"name":"台湾","pinyin":"taiwan"},{"firstLetter":"H","latitude":31.866942,"longitude":117.282699,"name":"合肥","pinyin":"hefei"},{"firstLetter":"A","latitude":30.537898,"longitude":117.058739,"name":"安庆","pinyin":"anqing"},{"firstLetter":"B","latitude":32.929499,"longitude":117.35708,"name":"蚌埠","pinyin":"bangbu"},{"firstLetter":"B","latitude":33.871211,"longitude":115.787928,"name":"亳州","pinyin":"bozhou"},{"firstLetter":"C","latitude":31.608733,"longitude":117.88049,"name":"巢湖","pinyin":"chaohu"},{"firstLetter":"C","latitude":30.660019,"longitude":117.494477,"name":"池州","pinyin":"chizhou"},{"firstLetter":"C","latitude":32.317351,"longitude":118.32457,"name":"滁州","pinyin":"chuzhou"},{"firstLetter":"F","latitude":32.901211,"longitude":115.820932,"name":"阜阳","pinyin":"fuyang"},{"firstLetter":"H","latitude":33.960023,"longitude":116.791447,"name":"淮北","pinyin":"huaibei"},{"firstLetter":"H","latitude":32.642812,"longitude":117.018639,"name":"淮南","pinyin":"huainan"},{"firstLetter":"H","latitude":29.734435,"longitude":118.29357,"name":"黄山","pinyin":"huangshan"},{"firstLetter":"L","latitude":31.755558,"longitude":116.505253,"name":"六安","pinyin":"liuan"},{"firstLetter":"M","latitude":31.688528,"longitude":118.515882,"name":"马鞍山","pinyin":"maanshan"},{"firstLetter":"S","latitude":33.636772,"longitude":116.988692,"name":"宿州","pinyin":"suzhou"},{"firstLetter":"T","latitude":30.94093,"longitude":117.819429,"name":"铜陵","pinyin":"tongling"},{"firstLetter":"W","latitude":31.36602,"longitude":118.384108,"name":"芜湖","pinyin":"wuhu"},{"firstLetter":"X","latitude":30.951642,"longitude":118.752096,"name":"宣城","pinyin":"xuancheng"},{"firstLetter":"F","latitude":26.047125,"longitude":119.330221,"name":"福州","pinyin":"fuzhou"},{"firstLetter":"L","latitude":25.078685,"longitude":117.017997,"name":"龙岩","pinyin":"longyan"},{"firstLetter":"N","latitude":26.643626,"longitude":118.181883,"name":"南平","pinyin":"nanping"},{"firstLetter":"N","latitude":26.656527,"longitude":119.542082,"name":"宁德","pinyin":"ningde"},{"firstLetter":"P","latitude":25.44845,"longitude":119.077731,"name":"莆田","pinyin":"putian"},{"firstLetter":"Q","latitude":24.901652,"longitude":118.600362,"name":"泉州","pinyin":"quanzhou"},{"firstLetter":"S","latitude":26.270835,"longitude":117.642194,"name":"三明","pinyin":"sanming"},{"firstLetter":"S","latitude":24.489231,"longitude":118.103886,"name":"厦门","pinyin":"shamen"},{"firstLetter":"Z","latitude":24.517065,"longitude":117.676205,"name":"漳州","pinyin":"zhangzhou"},{"firstLetter":"L","latitude":36.064226,"longitude":103.823305,"name":"兰州","pinyin":"lanzhou"},{"firstLetter":"B","latitude":36.546682,"longitude":104.171241,"name":"白银","pinyin":"baiyin"},{"firstLetter":"D","latitude":35.586056,"longitude":104.626638,"name":"定西","pinyin":"dingxi"},{"firstLetter":"G","latitude":34.992211,"longitude":102.917442,"name":"甘南州","pinyin":"gannanzhou"},{"firstLetter":"J","latitude":39.802397,"longitude":98.281635,"name":"嘉峪关","pinyin":"jiayuguan"},{"firstLetter":"J","latitude":38.516072,"longitude":102.208126,"name":"金昌","pinyin":"jinchang"},{"firstLetter":"J","latitude":39.741474,"longitude":98.508415,"name":"酒泉","pinyin":"jiuquan"},{"firstLetter":"L","latitude":35.598514,"longitude":103.215249,"name":"临夏州","pinyin":"linxiazhou"},{"firstLetter":"L","latitude":33.39448,"longitude":104.934573,"name":"陇南","pinyin":"longnan"},{"firstLetter":"P","latitude":35.55011,"longitude":106.688911,"name":"平凉","pinyin":"pingliang"},{"firstLetter":"Q","latitude":35.726801,"longitude":107.644227,"name":"庆阳","pinyin":"qingyang"},{"firstLetter":"T","latitude":34.584319,"longitude":105.736932,"name":"天水","pinyin":"tianshui"},{"firstLetter":"W","latitude":37.933172,"longitude":102.640147,"name":"武威","pinyin":"wuwei"},{"firstLetter":"Z","latitude":38.93932,"longitude":100.459892,"name":"张掖","pinyin":"zhangye"},{"firstLetter":"G","latitude":23.120049,"longitude":113.30765,"name":"广州","pinyin":"guangzhou"},{"firstLetter":"C","latitude":23.661812,"longitude":116.630076,"name":"潮州","pinyin":"chaozhou"},{"firstLetter":"D","latitude":23.043024,"longitude":113.763434,"name":"东莞","pinyin":"dongguan"},{"firstLetter":"F","latitude":23.035095,"longitude":113.134026,"name":"佛山","pinyin":"foshan"},{"firstLetter":"H","latitude":23.757251,"longitude":114.713721,"name":"河源","pinyin":"heyuan"},{"firstLetter":"H","latitude":23.11354,"longitude":114.410658,"name":"惠州","pinyin":"huizhou"},{"firstLetter":"J","latitude":22.575117,"longitude":113.078125,"name":"江门","pinyin":"jiangmen"},{"firstLetter":"J","latitude":23.547999,"longitude":116.379501,"name":"揭阳","pinyin":"jieyang"},{"firstLetter":"M","latitude":21.668226,"longitude":110.931245,"name":"茂名","pinyin":"maoming"},{"firstLetter":"M","latitude":24.304571,"longitude":116.126403,"name":"梅州","pinyin":"meizhou"},{"firstLetter":"Q","latitude":23.698469,"longitude":113.040773,"name":"清远","pinyin":"qingyuan"},{"firstLetter":"S","latitude":23.383908,"longitude":116.72865,"name":"汕头","pinyin":"shantou"},{"firstLetter":"S","latitude":22.778731,"longitude":115.372924,"name":"汕尾","pinyin":"shanwei"},{"firstLetter":"S","latitude":24.80296,"longitude":113.594461,"name":"韶关","pinyin":"shaoguan"},{"firstLetter":"S","latitude":22.546054,"longitude":114.025974,"name":"深圳","pinyin":"shenzhen"},{"firstLetter":"Y","latitude":21.871517,"longitude":111.97701,"name":"阳江","pinyin":"yangjiang"},{"firstLetter":"Y","latitude":22.937976,"longitude":112.050946,"name":"云浮","pinyin":"yunfu"},{"firstLetter":"Z","latitude":21.257463,"longitude":110.365067,"name":"湛江","pinyin":"zhanjiang"},{"firstLetter":"Z","latitude":23.078663,"longitude":112.479653,"name":"肇庆","pinyin":"zhaoqing"},{"firstLetter":"Z","latitude":22.545178,"longitude":113.42206,"name":"中山","pinyin":"zhongshan"},{"firstLetter":"Z","latitude":22.256915,"longitude":113.562447,"name":"珠海","pinyin":"zhuhai"},{"firstLetter":"N","latitude":22.806493,"longitude":108.297234,"name":"南宁","pinyin":"nanning"},{"firstLetter":"B","latitude":23.901512,"longitude":106.631821,"name":"百色","pinyin":"baise"},{"firstLetter":"B","latitude":21.472718,"longitude":109.122628,"name":"北海","pinyin":"beihai"},{"firstLetter":"C","latitude":22.415455,"longitude":107.357322,"name":"崇左","pinyin":"chongzuo"},{"firstLetter":"F","latitude":21.617398,"longitude":108.351791,"name":"防城港","pinyin":"fangchenggang"},{"firstLetter":"G","latitude":25.262901,"longitude":110.26092,"name":"桂林","pinyin":"guilin"},{"firstLetter":"G","latitude":23.103373,"longitude":109.613708,"name":"贵港","pinyin":"guigang"},{"firstLetter":"H","latitude":24.699521,"longitude":108.069948,"name":"河池","pinyin":"hechi"},{"firstLetter":"H","latitude":24.411054,"longitude":111.552594,"name":"贺州","pinyin":"hezhou"},{"firstLetter":"L","latitude":23.741166,"longitude":109.231817,"name":"来宾","pinyin":"laibin"},{"firstLetter":"L","latitude":24.329053,"longitude":109.422402,"name":"柳州","pinyin":"liuzhou"},{"firstLetter":"Q","latitude":21.97335,"longitude":108.638798,"name":"钦州","pinyin":"qinzhou"},{"firstLetter":"W","latitude":23.485395,"longitude":111.305472,"name":"梧州","pinyin":"wuzhou"},{"firstLetter":"Y","latitude":22.643974,"longitude":110.151676,"name":"玉林","pinyin":"yulin"},{"firstLetter":"G","latitude":26.629907,"longitude":106.709177,"name":"贵阳","pinyin":"guiyang"},{"firstLetter":"A","latitude":26.228595,"longitude":105.92827,"name":"安顺","pinyin":"anshun"},{"firstLetter":"B","latitude":27.302612,"longitude":105.300492,"name":"毕节地区","pinyin":"bijiediqu"},{"firstLetter":"L","latitude":26.591866,"longitude":104.852087,"name":"六盘水","pinyin":"liupanshui"},{"firstLetter":"T","latitude":27.726271,"longitude":109.196161,"name":"铜仁地区","pinyin":"tongrendiqu"},{"firstLetter":"Z","latitude":27.699961,"longitude":106.93126,"name":"遵义","pinyin":"zunyi"},{"firstLetter":"Q","latitude":25.095148,"longitude":104.900558,"name":"黔西南州","pinyin":"qianxinanzhou"},{"firstLetter":"Q","latitude":26.583992,"longitude":107.985353,"name":"黔东南州","pinyin":"qiandongnanzhou"},{"firstLetter":"Q","latitude":26.264536,"longitude":107.523205,"name":"黔南州","pinyin":"qiannanzhou"},{"firstLetter":"H","latitude":20.022071,"longitude":110.330802,"name":"海口","pinyin":"haikou"},{"firstLetter":"B","latitude":19.216056,"longitude":109.358586,"name":"白沙","pinyin":"baisha"},{"firstLetter":"B","latitude":18.597592,"longitude":109.656113,"name":"保亭","pinyin":"baoting"},{"firstLetter":"C","latitude":19.222483,"longitude":109.0113,"name":"昌江","pinyin":"changjiang"},{"firstLetter":"D","latitude":19.571153,"longitude":109.413973,"name":"儋州","pinyin":"danzhou"},{"firstLetter":"C","latitude":19.693135,"longitude":109.996736,"name":"澄迈","pinyin":"chengmai"},{"firstLetter":"D","latitude":18.998161,"longitude":108.85101,"name":"东方","pinyin":"dongfang"},{"firstLetter":"D","latitude":19.490991,"longitude":110.32009,"name":"定安","pinyin":"dingan"},{"firstLetter":"Q","latitude":19.21483,"longitude":110.414359,"name":"琼海","pinyin":"qionghai"},{"firstLetter":"Q","latitude":19.039771,"longitude":109.861849,"name":"琼中","pinyin":"qiongzhong"},{"firstLetter":"L","latitude":18.658614,"longitude":109.062698,"name":"乐东","pinyin":"ledong"},{"firstLetter":"L","latitude":19.805922,"longitude":109.724101,"name":"临高","pinyin":"lingao"},{"firstLetter":"L","latitude":18.575985,"longitude":109.948661,"name":"陵水","pinyin":"lingshui"},{"firstLetter":"S","latitude":18.257776,"longitude":109.522771,"name":"三亚","pinyin":"sanya"},{"firstLetter":"T","latitude":19.347749,"longitude":110.063364,"name":"屯昌","pinyin":"tunchang"},{"firstLetter":"W","latitude":18.839886,"longitude":110.292505,"name":"万宁","pinyin":"wanning"},{"firstLetter":"W","latitude":19.750947,"longitude":110.780909,"name":"文昌","pinyin":"wenchang"},{"firstLetter":"W","latitude":18.831306,"longitude":109.51775,"name":"五指山","pinyin":"wuzhishan"},{"firstLetter":"S","latitude":38.048958,"longitude":114.522082,"name":"石家庄","pinyin":"shijiazhuang"},{"firstLetter":"B","latitude":38.886565,"longitude":115.49481,"name":"保定","pinyin":"baoding"},{"firstLetter":"C","latitude":38.297615,"longitude":116.863806,"name":"沧州","pinyin":"cangzhou"},{"firstLetter":"C","latitude":40.992521,"longitude":117.933822,"name":"承德","pinyin":"chengde"},{"firstLetter":"H","latitude":36.609308,"longitude":114.482694,"name":"邯郸","pinyin":"handan"},{"firstLetter":"H","latitude":37.746929,"longitude":115.686229,"name":"衡水","pinyin":"hengshui"},{"firstLetter":"L","latitude":39.518611,"longitude":116.703602,"name":"廊坊","pinyin":"langfang"},{"firstLetter":"Q","latitude":39.945462,"longitude":119.604368,"name":"秦皇岛","pinyin":"qinhuangdao"},{"firstLetter":"T","latitude":39.650531,"longitude":118.183451,"name":"唐山","pinyin":"tangshan"},{"firstLetter":"X","latitude":37.069531,"longitude":114.520487,"name":"邢台","pinyin":"xingtai"},{"firstLetter":"Z","latitude":40.811188,"longitude":114.893782,"name":"张家口","pinyin":"zhangjiakou"},{"firstLetter":"Z","latitude":34.75661,"longitude":113.649644,"name":"郑州","pinyin":"zhengzhou"},{"firstLetter":"A","latitude":36.110267,"longitude":114.351807,"name":"安阳","pinyin":"anyang"},{"firstLetter":"H","latitude":35.755426,"longitude":114.29777,"name":"鹤壁","pinyin":"hebi"},{"firstLetter":"J","latitude":35.234608,"longitude":113.211836,"name":"焦作","pinyin":"jiaozuo"},{"firstLetter":"K","latitude":34.801854,"longitude":114.351642,"name":"开封","pinyin":"kaifeng"},{"firstLetter":"L","latitude":34.657368,"longitude":112.447525,"name":"洛阳","pinyin":"luoyang"},{"firstLetter":"L","latitude":33.576279,"longitude":114.046061,"name":"漯河","pinyin":"luohe"},{"firstLetter":"N","latitude":33.01142,"longitude":112.542842,"name":"南阳","pinyin":"nanyang"},{"firstLetter":"P","latitude":33.745301,"longitude":113.300849,"name":"平顶山","pinyin":"pingdingshan"},{"firstLetter":"P","latitude":35.753298,"longitude":115.026627,"name":"濮阳","pinyin":"puyang"},{"firstLetter":"S","latitude":34.78332,"longitude":111.181262,"name":"三门峡","pinyin":"sanmenxia"},{"firstLetter":"S","latitude":34.438589,"longitude":115.641886,"name":"商丘","pinyin":"shangqiu"},{"firstLetter":"X","latitude":35.307258,"longitude":113.91269,"name":"新乡","pinyin":"xinxiang"},{"firstLetter":"X","latitude":32.128582,"longitude":114.085491,"name":"信阳","pinyin":"xinyang"},{"firstLetter":"X","latitude":34.02674,"longitude":113.835312,"name":"许昌","pinyin":"xuchang"},{"firstLetter":"Z","latitude":33.623741,"longitude":114.654102,"name":"周口","pinyin":"zhoukou"},{"firstLetter":"Z","latitude":32.983158,"longitude":114.049154,"name":"驻马店","pinyin":"zhumadian"},{"firstLetter":"H","latitude":45.773225,"longitude":126.657717,"name":"哈尔滨","pinyin":"haerbin"},{"firstLetter":"D","latitude":46.596709,"longitude":125.02184,"name":"大庆","pinyin":"daqing"},{"firstLetter":"D","latitude":51.991789,"longitude":124.196104,"name":"大兴安玲地区","pinyin":"daxinganlingdiqu"},{"firstLetter":"H","latitude":47.338666,"longitude":130.292472,"name":"鹤岗","pinyin":"hegang"},{"firstLetter":"H","latitude":50.25069,"longitude":127.50083,"name":"黑河","pinyin":"heihe"},{"firstLetter":"J","latitude":45.32154,"longitude":130.941767,"name":"鸡西","pinyin":"jixi"},{"firstLetter":"J","latitude":46.81378,"longitude":130.284735,"name":"佳木斯","pinyin":"jiamusi"},{"firstLetter":"M","latitude":44.588521,"longitude":129.608035,"name":"牡丹江","pinyin":"mudanjiang"},{"firstLetter":"Q","latitude":45.775005,"longitude":131.019048,"name":"七台河","pinyin":"qitaihe"},{"firstLetter":"Q","latitude":47.3477,"longitude":123.987289,"name":"齐齐哈尔","pinyin":"qiqihaer"},{"firstLetter":"S","latitude":46.655102,"longitude":131.171402,"name":"双鸭山","pinyin":"shuangyashan"},{"firstLetter":"S","latitude":46.646064,"longitude":126.989095,"name":"绥化","pinyin":"suihua"},{"firstLetter":"Y","latitude":47.734685,"longitude":128.910766,"name":"伊春","pinyin":"yichun"},{"firstLetter":"W","latitude":30.581084,"longitude":114.3162,"name":"武汉","pinyin":"wuhan"},{"firstLetter":"E","latitude":30.384439,"longitude":114.895594,"name":"鄂州","pinyin":"ezhou"},{"firstLetter":"E","latitude":30.308978,"longitude":109.517433,"name":"恩施","pinyin":"enshi"},{"firstLetter":"H","latitude":30.446109,"longitude":114.906618,"name":"黄冈","pinyin":"huanggang"},{"firstLetter":"H","latitude":30.216127,"longitude":115.050683,"name":"黄石","pinyin":"huangshi"},{"firstLetter":"J","latitude":31.042611,"longitude":112.21733,"name":"荆门","pinyin":"jingmen"},{"firstLetter":"J","latitude":30.332591,"longitude":112.241866,"name":"荆州","pinyin":"jingzhou"},{"firstLetter":"Q","latitude":30.343116,"longitude":112.768768,"name":"潜江","pinyin":"qianjiang"},{"firstLetter":"S","latitude":31.595768,"longitude":110.487231,"name":"神农架林区","pinyin":"shennongjialinqu"},{"firstLetter":"S","latitude":32.636994,"longitude":110.801229,"name":"十堰","pinyin":"shiyan"},{"firstLetter":"S","latitude":31.717858,"longitude":113.379358,"name":"随州","pinyin":"suizhou"},{"firstLetter":"T","latitude":30.649047,"longitude":113.12623,"name":"天门","pinyin":"tianmen"},{"firstLetter":"X","latitude":30.293966,"longitude":113.387448,"name":"仙桃","pinyin":"xiantao"},{"firstLetter":"X","latitude":29.880657,"longitude":114.300061,"name":"咸宁","pinyin":"xianning"},{"firstLetter":"X","latitude":32.094934,"longitude":112.176326,"name":"襄阳","pinyin":"xiangyang"},{"firstLetter":"X","latitude":30.927955,"longitude":113.935734,"name":"孝感","pinyin":"xiaogan"},{"firstLetter":"Y","latitude":30.732758,"longitude":111.310981,"name":"宜昌","pinyin":"yichang"},{"firstLetter":"Z","latitude":28.213478,"longitude":112.979353,"name":"长沙","pinyin":"zhangsha"},{"firstLetter":"C","latitude":29.012149,"longitude":111.653718,"name":"常德","pinyin":"changde"},{"firstLetter":"C","latitude":25.782264,"longitude":113.037704,"name":"郴州","pinyin":"chenzhou"},{"firstLetter":"H","latitude":26.898164,"longitude":112.583819,"name":"衡阳","pinyin":"hengyang"},{"firstLetter":"H","latitude":27.557483,"longitude":109.986959,"name":"怀化","pinyin":"huaihua"},{"firstLetter":"L","latitude":27.741073,"longitude":111.996396,"name":"娄底","pinyin":"loudi"},{"firstLetter":"S","latitude":27.236811,"longitude":111.461525,"name":"邵阳","pinyin":"shaoyang"},{"firstLetter":"X","latitude":27.835095,"longitude":112.935556,"name":"湘潭","pinyin":"xiangtan"},{"firstLetter":"X","latitude":28.317951,"longitude":109.745746,"name":"湘西州","pinyin":"xiangxizhou"},{"firstLetter":"Y","latitude":28.588088,"longitude":112.366547,"name":"益阳","pinyin":"yiyang"},{"firstLetter":"Y","latitude":26.435972,"longitude":111.614648,"name":"永州","pinyin":"yongzhou"},{"firstLetter":"Y","latitude":29.378007,"longitude":113.146196,"name":"岳阳","pinyin":"yueyang"},{"firstLetter":"Z","latitude":29.124889,"longitude":110.48162,"name":"张家界","pinyin":"zhangjiajie"},{"firstLetter":"Z","latitude":27.827433,"longitude":113.131695,"name":"株洲","pinyin":"zhuzhou"},{"firstLetter":"N","latitude":32.057236,"longitude":118.778074,"name":"南京","pinyin":"nanjing"},{"firstLetter":"C","latitude":31.771397,"longitude":119.981861,"name":"常州","pinyin":"changzhou"},{"firstLetter":"H","latitude":33.606513,"longitude":119.030186,"name":"淮安","pinyin":"huaian"},{"firstLetter":"L","latitude":34.601549,"longitude":119.173872,"name":"连云港","pinyin":"lianyungang"},{"firstLetter":"N","latitude":32.014665,"longitude":120.873801,"name":"南通","pinyin":"nantong"},{"firstLetter":"S","latitude":31.317987,"longitude":120.619907,"name":"苏州","pinyin":"suzhou"},{"firstLetter":"S","latitude":33.95205,"longitude":118.296893,"name":"宿迁","pinyin":"suqian"},{"firstLetter":"T","latitude":32.476053,"longitude":119.919606,"name":"泰州","pinyin":"taizhou"},{"firstLetter":"W","latitude":31.570037,"longitude":120.305456,"name":"无锡","pinyin":"wuxi"},{"firstLetter":"X","latitude":34.271553,"longitude":117.188107,"name":"徐州","pinyin":"xuzhou"},{"firstLetter":"Y","latitude":33.379862,"longitude":120.148872,"name":"盐城","pinyin":"yancheng"},{"firstLetter":"Y","latitude":32.408505,"longitude":119.427778,"name":"扬州","pinyin":"yangzhou"},{"firstLetter":"Z","latitude":32.204409,"longitude":119.455835,"name":"镇江","pinyin":"zhenjiang"},{"firstLetter":"N","latitude":28.689578,"longitude":115.893528,"name":"南昌","pinyin":"nanchang"},{"firstLetter":"F","latitude":27.954545,"longitude":116.360919,"name":"抚州","pinyin":"fuzhou"},{"firstLetter":"G","latitude":25.845296,"longitude":114.935909,"name":"赣州","pinyin":"ganzhou"},{"firstLetter":"J","latitude":27.113848,"longitude":114.992039,"name":"吉安","pinyin":"jian"},{"firstLetter":"J","latitude":29.303563,"longitude":117.186523,"name":"景德镇","pinyin":"jingdezhen"},{"firstLetter":"J","latitude":29.71964,"longitude":115.999848,"name":"九江","pinyin":"jiujiang"},{"firstLetter":"P","latitude":27.639544,"longitude":113.859917,"name":"萍乡","pinyin":"pingxiang"},{"firstLetter":"S","latitude":28.457623,"longitude":117.955464,"name":"上饶","pinyin":"shangrao"},{"firstLetter":"X","latitude":27.822322,"longitude":114.947117,"name":"新余","pinyin":"xinyu"},{"firstLetter":"Y","latitude":27.81113,"longitude":114.400039,"name":"宜春","pinyin":"yichun"},{"firstLetter":"Y","latitude":28.24131,"longitude":117.03545,"name":"鹰潭","pinyin":"yingtan"},{"firstLetter":"Z","latitude":43.898338,"longitude":125.313642,"name":"长春","pinyin":"zhangchun"},{"firstLetter":"B","latitude":45.621086,"longitude":122.840777,"name":"白城","pinyin":"baicheng"},{"firstLetter":"B","latitude":41.945859,"longitude":126.435798,"name":"白山","pinyin":"baishan"},{"firstLetter":"J","latitude":43.871988,"longitude":126.564544,"name":"吉林市","pinyin":"jilinshi"},{"firstLetter":"L","latitude":42.923303,"longitude":125.133686,"name":"辽源","pinyin":"liaoyuan"},{"firstLetter":"S","latitude":43.175525,"longitude":124.391382,"name":"四平","pinyin":"siping"},{"firstLetter":"S","latitude":45.136049,"longitude":124.832995,"name":"松原","pinyin":"songyuan"},{"firstLetter":"T","latitude":41.736397,"longitude":125.94265,"name":"通化","pinyin":"tonghua"},{"firstLetter":"Y","latitude":42.896414,"longitude":129.485902,"name":"延边","pinyin":"yanbian"},{"firstLetter":"S","latitude":41.808645,"longitude":123.432791,"name":"沈阳","pinyin":"shenyang"},{"firstLetter":"A","latitude":41.118744,"longitude":123.007763,"name":"鞍山","pinyin":"anshan"},{"firstLetter":"B","latitude":41.325838,"longitude":123.778062,"name":"本溪","pinyin":"benxi"},{"firstLetter":"C","latitude":41.571828,"longitude":120.446163,"name":"朝阳","pinyin":"chaoyang"},{"firstLetter":"D","latitude":38.94871,"longitude":121.593478,"name":"大连","pinyin":"dalian"},{"firstLetter":"D","latitude":40.129023,"longitude":124.338543,"name":"丹东","pinyin":"dandong"},{"firstLetter":"F","latitude":41.877304,"longitude":123.92982,"name":"抚顺","pinyin":"fushun"},{"firstLetter":"F","latitude":42.01925,"longitude":121.660822,"name":"阜新","pinyin":"fuxin"},{"firstLetter":"H","latitude":40.74303,"longitude":120.860758,"name":"葫芦岛","pinyin":"huludao"},{"firstLetter":"J","latitude":41.130879,"longitude":121.147749,"name":"锦州","pinyin":"jinzhou"},{"firstLetter":"L","latitude":41.273339,"longitude":123.172451,"name":"辽阳","pinyin":"liaoyang"},{"firstLetter":"P","latitude":41.141248,"longitude":122.073228,"name":"盘锦","pinyin":"panjin"},{"firstLetter":"T","latitude":42.299757,"longitude":123.85485,"name":"铁岭","pinyin":"tieling"},{"firstLetter":"Y","latitude":40.668651,"longitude":122.233391,"name":"营口","pinyin":"yingkou"},{"firstLetter":"H","latitude":40.828319,"longitude":111.660351,"name":"呼和浩特","pinyin":"huhehaote"},{"firstLetter":"A","latitude":38.843075,"longitude":105.695683,"name":"阿拉善盟","pinyin":"alashanmeng"},{"firstLetter":"B","latitude":40.647119,"longitude":109.846239,"name":"包头","pinyin":"baotou"},{"firstLetter":"B","latitude":40.76918,"longitude":107.423807,"name":"巴彦淖尔","pinyin":"bayannaoer"},{"firstLetter":"C","latitude":42.297112,"longitude":118.930761,"name":"赤峰","pinyin":"chifeng"},{"firstLetter":"E","latitude":39.81649,"longitude":109.993706,"name":"鄂尔多斯","pinyin":"eerduosi"},{"firstLetter":"H","latitude":49.201636,"longitude":119.760822,"name":"呼伦贝尔","pinyin":"hulunbeier"},{"firstLetter":"T","latitude":43.633756,"longitude":122.260363,"name":"通辽","pinyin":"tongliao"},{"firstLetter":"W","latitude":39.683177,"longitude":106.831999,"name":"乌海","pinyin":"wuhai"},{"firstLetter":"W","latitude":41.022363,"longitude":113.112846,"name":"乌兰察布","pinyin":"wulanchabu"},{"firstLetter":"X","latitude":43.939705,"longitude":116.02734,"name":"锡林郭勒盟","pinyin":"xilinguolemeng"},{"firstLetter":"X","latitude":46.083757,"longitude":122.048167,"name":"兴安盟","pinyin":"xinganmeng"},{"firstLetter":"Y","latitude":38.502621,"longitude":106.206479,"name":"银川","pinyin":"yinchuan"},{"firstLetter":"G","latitude":36.021523,"longitude":106.285268,"name":"固原","pinyin":"guyuan"},{"firstLetter":"S","latitude":39.020223,"longitude":106.379337,"name":"石嘴山","pinyin":"shizuishan"},{"firstLetter":"W","latitude":37.993561,"longitude":106.208254,"name":"吴忠","pinyin":"wuzhong"},{"firstLetter":"Z","latitude":37.521124,"longitude":105.196754,"name":"中卫","pinyin":"zhongwei"},{"firstLetter":"X","latitude":36.640739,"longitude":101.767921,"name":"西宁","pinyin":"xining"},{"firstLetter":"G","latitude":34.480485,"longitude":100.223723,"name":"果洛州","pinyin":"guoluozhou"},{"firstLetter":"H","latitude":36.51761,"longitude":102.085207,"name":"海东地区","pinyin":"haidongdiqu"},{"firstLetter":"H","latitude":36.960654,"longitude":100.879802,"name":"海北州","pinyin":"haibeizhou"},{"firstLetter":"H","latitude":36.284364,"longitude":100.624066,"name":"海南州","pinyin":"hainanzhou"},{"firstLetter":"H","latitude":37.373799,"longitude":97.342625,"name":"海西州","pinyin":"haixizhou"},{"firstLetter":"H","latitude":35.522852,"longitude":102.0076,"name":"黄南州","pinyin":"huangnanzhou"},{"firstLetter":"Y","latitude":33.00624,"longitude":97.013316,"name":"玉树州","pinyin":"yushuzhou"},{"firstLetter":"J","latitude":36.682785,"longitude":117.024967,"name":"济南","pinyin":"jinan"},{"firstLetter":"B","latitude":37.405314,"longitude":117.968292,"name":"滨州","pinyin":"binzhou"},{"firstLetter":"D","latitude":37.487121,"longitude":118.583926,"name":"东营","pinyin":"dongying"},{"firstLetter":"D","latitude":37.460826,"longitude":116.328161,"name":"德州","pinyin":"dezhou"},{"firstLetter":"H","latitude":35.26244,"longitude":115.46336,"name":"菏泽","pinyin":"heze"},{"firstLetter":"J","latitude":35.402122,"longitude":116.600798,"name":"济宁","pinyin":"jining"},{"firstLetter":"L","latitude":36.233654,"longitude":117.684667,"name":"莱芜","pinyin":"laiwu"},{"firstLetter":"L","latitude":36.455829,"longitude":115.986869,"name":"聊城","pinyin":"liaocheng"},{"firstLetter":"L","latitude":35.072409,"longitude":118.340768,"name":"临沂","pinyin":"linyi"},{"firstLetter":"Q","latitude":36.105215,"longitude":120.384428,"name":"青岛","pinyin":"qingdao"},{"firstLetter":"R","latitude":35.420225,"longitude":119.50718,"name":"日照","pinyin":"rizhao"},{"firstLetter":"T","latitude":36.188078,"longitude":117.089415,"name":"泰安","pinyin":"taian"},{"firstLetter":"W","latitude":37.528787,"longitude":122.093958,"name":"威海","pinyin":"weihai"},{"firstLetter":"W","latitude":36.716115,"longitude":119.142634,"name":"潍坊","pinyin":"weifang"},{"firstLetter":"Y","latitude":37.536562,"longitude":121.309555,"name":"烟台","pinyin":"yantai"},{"firstLetter":"Z","latitude":34.807883,"longitude":117.279305,"name":"枣庄","pinyin":"zaozhuang"},{"firstLetter":"Z","latitude":36.804685,"longitude":118.059134,"name":"淄博","pinyin":"zibo"},{"firstLetter":"T","latitude":37.890277,"longitude":112.550864,"name":"太原","pinyin":"taiyuan"},{"firstLetter":"Z","latitude":36.201664,"longitude":113.120292,"name":"长治","pinyin":"zhangzhi"},{"firstLetter":"D","latitude":40.113744,"longitude":113.290509,"name":"大同","pinyin":"datong"},{"firstLetter":"J","latitude":35.499834,"longitude":112.867333,"name":"晋城","pinyin":"jincheng"},{"firstLetter":"J","latitude":37.693362,"longitude":112.738514,"name":"晋中","pinyin":"jinzhong"},{"firstLetter":"L","latitude":36.099745,"longitude":111.538788,"name":"临汾","pinyin":"linfen"},{"firstLetter":"L","latitude":37.527316,"longitude":111.143157,"name":"吕梁","pinyin":"lvliang"},{"firstLetter":"S","latitude":39.337672,"longitude":112.479928,"name":"朔州","pinyin":"shuozhou"},{"firstLetter":"X","latitude":38.461031,"longitude":112.727939,"name":"忻州","pinyin":"xinzhou"},{"firstLetter":"Y","latitude":37.869529,"longitude":113.569238,"name":"阳泉","pinyin":"yangquan"},{"firstLetter":"Y","latitude":35.038859,"longitude":111.006854,"name":"运城","pinyin":"yuncheng"},{"firstLetter":"X","latitude":34.2778,"longitude":108.953098,"name":"西安","pinyin":"xian"},{"firstLetter":"A","latitude":32.70437,"longitude":109.038045,"name":"安康","pinyin":"ankang"},{"firstLetter":"B","latitude":34.364081,"longitude":107.170645,"name":"宝鸡","pinyin":"baoji"},{"firstLetter":"H","latitude":33.081569,"longitude":107.045478,"name":"汉中","pinyin":"hanzhong"},{"firstLetter":"S","latitude":33.873907,"longitude":109.934208,"name":"商洛","pinyin":"shangluo"},{"firstLetter":"T","latitude":34.908368,"longitude":108.968067,"name":"铜川","pinyin":"tongchuan"},{"firstLetter":"W","latitude":34.502358,"longitude":109.483933,"name":"渭南","pinyin":"weinan"},{"firstLetter":"X","latitude":34.345373,"longitude":108.707509,"name":"咸阳","pinyin":"xianyang"},{"firstLetter":"Y","latitude":36.60332,"longitude":109.50051,"name":"延安","pinyin":"yanan"},{"firstLetter":"Y","latitude":38.279439,"longitude":109.745926,"name":"榆林","pinyin":"yulin"},{"firstLetter":"C","latitude":30.679943,"longitude":104.067923,"name":"成都","pinyin":"chengdou"},{"firstLetter":"A","latitude":31.905763,"longitude":102.228565,"name":"阿坝州","pinyin":"abazhou"},{"firstLetter":"B","latitude":31.869189,"longitude":106.757916,"name":"巴中","pinyin":"bazhong"},{"firstLetter":"D","latitude":31.214199,"longitude":107.494973,"name":"达州","pinyin":"dazhou"},{"firstLetter":"D","latitude":31.13114,"longitude":104.402398,"name":"德阳","pinyin":"deyang"},{"firstLetter":"G","latitude":30.055144,"longitude":101.969232,"name":"甘孜州","pinyin":"ganzizhou"},{"firstLetter":"G","latitude":30.463984,"longitude":106.63572,"name":"广安","pinyin":"guangan"},{"firstLetter":"G","latitude":32.44104,"longitude":105.819687,"name":"广元","pinyin":"guangyuan"},{"firstLetter":"L","latitude":29.600958,"longitude":103.760824,"name":"乐山","pinyin":"leshan"},{"firstLetter":"L","latitude":27.892393,"longitude":102.259591,"name":"凉山州","pinyin":"liangshanzhou"},{"firstLetter":"L","latitude":28.89593,"longitude":105.44397,"name":"泸州","pinyin":"luzhou"},{"firstLetter":"N","latitude":30.800965,"longitude":106.105554,"name":"南充","pinyin":"nanchong"},{"firstLetter":"M","latitude":30.061115,"longitude":103.84143,"name":"眉山","pinyin":"meishan"},{"firstLetter":"M","latitude":31.504701,"longitude":104.705519,"name":"绵阳","pinyin":"mianyang"},{"firstLetter":"N","latitude":29.599462,"longitude":105.073056,"name":"内江","pinyin":"neijiang"},{"firstLetter":"P","latitude":26.587571,"longitude":101.722423,"name":"攀枝花","pinyin":"panzhihua"},{"firstLetter":"S","latitude":30.557491,"longitude":105.564888,"name":"遂宁","pinyin":"suining"},{"firstLetter":"Y","latitude":29.999716,"longitude":103.009356,"name":"雅安","pinyin":"yaan"},{"firstLetter":"Y","latitude":28.769675,"longitude":104.633019,"name":"宜宾","pinyin":"yibin"},{"firstLetter":"Z","latitude":30.132191,"longitude":104.63593,"name":"资阳","pinyin":"ziyang"},{"firstLetter":"Z","latitude":29.359157,"longitude":104.776071,"name":"自贡","pinyin":"zigong"},{"firstLetter":"L","latitude":29.662557,"longitude":91.111891,"name":"拉萨","pinyin":"lasa"},{"firstLetter":"A","latitude":30.404557,"longitude":81.107669,"name":"阿里地区","pinyin":"alidiqu"},{"firstLetter":"C","latitude":31.140576,"longitude":97.185582,"name":"昌都地区","pinyin":"changdoudiqu"},{"firstLetter":"L","latitude":29.666941,"longitude":94.349985,"name":"林芝地区","pinyin":"linzhidiqu"},{"firstLetter":"N","latitude":31.48068,"longitude":92.067018,"name":"那曲地区","pinyin":"neiqudiqu"},{"firstLetter":"R","latitude":29.269023,"longitude":88.891486,"name":"日喀则地区","pinyin":"rikazediqu"},{"firstLetter":"S","latitude":29.229027,"longitude":91.750644,"name":"山南地区","pinyin":"shannandiqu"},{"firstLetter":"W","latitude":43.84038,"longitude":87.564988,"name":"乌鲁木齐","pinyin":"wulumuqi"},{"firstLetter":"A","latitude":40.61568,"longitude":81.291737,"name":"阿拉尔","pinyin":"alaer"},{"firstLetter":"A","latitude":41.171731,"longitude":80.269846,"name":"阿克苏地区","pinyin":"akesudiqu"},{"firstLetter":"A","latitude":47.839744,"longitude":88.137915,"name":"阿勒泰地区","pinyin":"aletaidiqu"},{"firstLetter":"B","latitude":41.771362,"longitude":86.121688,"name":"巴音郭楞","pinyin":"bayinguoleng"},{"firstLetter":"B","latitude":44.913651,"longitude":82.052436,"name":"博尔塔拉州","pinyin":"boertalazhou"},{"firstLetter":"C","latitude":44.007058,"longitude":87.296038,"name":"昌吉州","pinyin":"changjizhou"},{"firstLetter":"H","latitude":42.858596,"longitude":93.528355,"name":"哈密地区","pinyin":"hamidiqu"},{"firstLetter":"H","latitude":37.116774,"longitude":79.930239,"name":"和田地区","pinyin":"hetiandiqu"},{"firstLetter":"K","latitude":39.470627,"longitude":75.992973,"name":"喀什地区","pinyin":"kashendiqu"},{"firstLetter":"K","latitude":45.594331,"longitude":84.88118,"name":"克拉玛依","pinyin":"kelamayi"},{"firstLetter":"K","latitude":39.750346,"longitude":76.137564,"name":"克孜勒苏州","pinyin":"kezilesuzhou"},{"firstLetter":"S","latitude":44.308259,"longitude":86.041865,"name":"石河子","pinyin":"shihezi"},{"firstLetter":"T","latitude":46.758684,"longitude":82.974881,"name":"塔城地区","pinyin":"tachengdiqu"},{"firstLetter":"T","latitude":39.889223,"longitude":79.198155,"name":"图木舒克","pinyin":"tumushuke"},{"firstLetter":"T","latitude":42.96047,"longitude":89.181595,"name":"吐鲁番地区","pinyin":"tulufandiqu"},{"firstLetter":"W","latitude":44.368899,"longitude":87.565449,"name":"五家渠","pinyin":"wujiaqu"},{"firstLetter":"Y","latitude":43.922248,"longitude":81.297854,"name":"伊犁州","pinyin":"yilizhou"},{"firstLetter":"K","latitude":25.049153,"longitude":102.714601,"name":"昆明","pinyin":"kunming"},{"firstLetter":"B","latitude":25.120489,"longitude":99.177996,"name":"保山","pinyin":"baoshan"},{"firstLetter":"C","latitude":25.066356,"longitude":101.529382,"name":"楚雄州","pinyin":"chuxiongzhou"},{"firstLetter":"D","latitude":25.5969,"longitude":100.223675,"name":"大理州","pinyin":"dalizhou"},{"firstLetter":"D","latitude":24.44124,"longitude":98.589434,"name":"德宏州","pinyin":"dehongzhou"},{"firstLetter":"D","latitude":27.831029,"longitude":99.713682,"name":"迪庆州","pinyin":"diqingzhou"},{"firstLetter":"H","latitude":23.367718,"longitude":103.384065,"name":"红河州","pinyin":"honghezhou"},{"firstLetter":"L","latitude":26.875351,"longitude":100.229628,"name":"丽江","pinyin":"lijiang"},{"firstLetter":"L","latitude":23.887806,"longitude":100.092613,"name":"临沧","pinyin":"lincang"},{"firstLetter":"N","latitude":25.860677,"longitude":98.859932,"name":"怒江州","pinyin":"nujiangzhou"},{"firstLetter":"P","latitude":22.788778,"longitude":100.980058,"name":"普洱","pinyin":"puer"},{"firstLetter":"Q","latitude":25.520758,"longitude":103.782539,"name":"曲靖","pinyin":"qujing"},{"firstLetter":"Z","latitude":27.340633,"longitude":103.725021,"name":"昭通","pinyin":"zhaotong"},{"firstLetter":"W","latitude":23.401781,"longitude":104.089112,"name":"文山","pinyin":"wenshan"},{"firstLetter":"X","latitude":22.009433,"longitude":100.803038,"name":"西双版纳","pinyin":"xishuangbanna"},{"firstLetter":"Y","latitude":24.370447,"longitude":102.545068,"name":"玉溪","pinyin":"yuxi"},{"firstLetter":"H","latitude":30.259244,"longitude":120.219375,"name":"杭州","pinyin":"hangzhou"},{"firstLetter":"H","latitude":30.877925,"longitude":120.137243,"name":"湖州","pinyin":"huzhou"},{"firstLetter":"J","latitude":30.773992,"longitude":120.760428,"name":"嘉兴","pinyin":"jiaxing"},{"firstLetter":"J","latitude":29.102899,"longitude":119.652576,"name":"金华","pinyin":"jinhua"},{"firstLetter":"L","latitude":28.4563,"longitude":119.929576,"name":"丽水","pinyin":"lishui"},{"firstLetter":"N","latitude":29.885259,"longitude":121.579006,"name":"宁波","pinyin":"ningbo"},{"firstLetter":"Q","latitude":28.95691,"longitude":118.875842,"name":"衢州","pinyin":"quzhou"},{"firstLetter":"S","latitude":30.002365,"longitude":120.592467,"name":"绍兴","pinyin":"shaoxing"},{"firstLetter":"T","latitude":28.668283,"longitude":121.440613,"name":"台州","pinyin":"taizhou"},{"firstLetter":"W","latitude":28.002838,"longitude":120.690635,"name":"温州","pinyin":"wenzhou"},{"firstLetter":"Z","latitude":30.03601,"longitude":122.169872,"name":"舟山","pinyin":"zhoushan"}]